IRIDIUM 124             
1 42810U 17039H   26074.24805484  .00000375  00000+0  10549-3 0  9995
2 42810  86.4525 329.6548 0002062  85.5442 274.5994 14.43279149461568
IRIDIUM 128             
1 42811U 17039J   26074.23095721  .00000040  00000+0  71306-5 0  9999
2 42811  86.3918  64.4246 0002162  94.3743 265.7700 14.34217657456518
IRIDIUM 121             
1 42812U 17039K   26074.25924757 -.00000022  00000+0 -15029-4 0  9993
2 42812  86.3982  32.9096 0002103  87.7899 272.3537 14.34217289456362
IRIDIUM 133             
1 42955U 17061A   26074.19290144  .00000070  00000+0  17774-4 0  9995
2 42955  86.3921  64.5561 0002182  90.2721 269.8725 14.34217927441308
IRIDIUM 100             
1 42956U 17061B   26074.25632699  .00000046  00000+0  93518-5 0  9992
2 42956  86.3918  64.4502 0002128  89.6737 270.4703 14.34217783441313
IRIDIUM 122             
1 42957U 17061C   26074.01530730  .00000029  00000+0  32070-5 0  9997
2 42957  86.3917  64.5511 0002080  88.1670 271.9764 14.34217507441284
IRIDIUM 129             
1 42958U 17061D   26074.24998353  .00000098  00000+0  27771-4 0  9999
2 42958  86.3920  64.5191 0002399  82.1771 277.9697 14.34218336441330
IRIDIUM 119             
1 42959U 17061E   26074.21826468  .00000167  00000+0  52646-4 0  9990
2 42959  86.3920  64.5276 0002147  84.8787 275.2654 14.34220035441346
IRIDIUM 107             
1 42960U 17061F   26074.23729836  .00000006  00000+0 -49603-5 0  9998
2 42960  86.3920  64.5407 0001748  91.1288 269.0108 14.34217474441356
IRIDIUM 132             
1 42961U 17061G   26074.03433569  .00000085  00000+0  23123-4 0  9996
2 42961  86.3919  64.6055 0002134  90.2145 269.9296 14.34218038441328
IRIDIUM 136             
1 42962U 17061H   26074.06604912  .00000004  00000+0 -57601-5 0  9993
2 42962  86.3922  64.5987 0002004  86.7677 273.3748 14.34217468441341
IRIDIUM 139             
1 42963U 17061J   26074.21192903  .00000049  00000+0  10324-4 0  9991
2 42963  86.3922  64.5979 0002146  90.9983 269.1458 14.34217879441377
IRIDIUM 125             
1 42964U 17061K   26074.05970496  .00000003  00000+0 -61242-5 0  9992
2 42964  86.3926  64.7214 0001614  77.5065 282.6312 14.34217575441368
IRIDIUM 135             
1 43070U 17083A   26074.24313579  .00000203  00000+0  65357-4 0  9990
2 43070  86.4028   1.2756 0002196  85.1850 274.9596 14.34216975430685
IRIDIUM 138             
1 43071U 17083B   26074.26850734  .00000149  00000+0  46261-4 0  9994
2 43071  86.4042   0.9464 0002084  73.4534 286.6891 14.34218882430675
IRIDIUM 116             
1 43072U 17083C   26074.23679610  .00000147  00000+0  45585-4 0  9990
2 43072  86.4025   1.2653 0002224  93.4097 266.7354 14.34218401430707
IRIDIUM 130             
1 43073U 17083D   26074.27485073  .00000044  00000+0  87369-5 0  9996
2 43073  86.4036   1.5155 0001974  91.7699 268.3723 14.34218077430651
