[{"OBJECT_NAME":"IRIDIUM 124","OBJECT_ID":"2017-039H","EPOCH":"2026-03-15T05:57:11.938176","MEAN_MOTION":14.43279149,"ECCENTRICITY":0.00020622,"INCLINATION":86.4525,"RA_OF_ASC_NODE":329.6548,"ARG_OF_PERICENTER":85.5442,"MEAN_ANOMALY":274.5994,"EPHEMERIS_TYPE":0,"CLASSIFICATION_TYPE":"U","NORAD_CAT_ID":42810,"ELEMENT_SET_NO":999,"REV_AT_EPOCH":46156,"BSTAR":0.00010549327,"MEAN_MOTION_DOT":3.75e-6,"MEAN_MOTION_DDOT":0},{"OBJECT_NAME":"IRIDIUM 128","OBJECT_ID":"2017-039J","EPOCH":"2026-03-15T05:32:34.702944","MEAN_MOTION":14.34217657,"ECCENTRICITY":0.00021624,"INCLINATION":86.3918,"RA_OF_ASC_NODE":64.4246,"ARG_OF_PERICENTER":94.3743,"MEAN_ANOMALY":265.77,"EPHEMERIS_TYPE":0,"CLASSIFICATION_TYPE":"U","NORAD_CAT_ID":42811,"ELEMENT_SET_NO":999,"REV_AT_EPOCH":45651,"BSTAR":7.130562e-6,"MEAN_MOTION_DOT":4.0e-7,"MEAN_MOTION_DDOT":0},{"OBJECT_NAME":"IRIDIUM 121","OBJECT_ID":"2017-039K","EPOCH":"2026-03-15T06:13:18.990048","MEAN_MOTION":14.34217289,"ECCENTRICITY":0.00021034,"INCLINATION":86.3982,"RA_OF_ASC_NODE":32.9096,"ARG_OF_PERICENTER":87.7899,"MEAN_ANOMALY":272.3537,"EPHEMERIS_TYPE":0,"CLASSIFICATION_TYPE":"U","NORAD_CAT_ID":42812,"ELEMENT_SET_NO":999,"REV_AT_EPOCH":45636,"BSTAR":-1.5028688e-5,"MEAN_MOTION_DOT":-2.2e-7,"MEAN_MOTION_DDOT":0},{"OBJECT_NAME":"IRIDIUM 133","OBJECT_ID":"2017-061A","EPOCH":"2026-03-15T04:37:46.684416","MEAN_MOTION":14.34217927,"ECCENTRICITY":0.00021822,"INCLINATION":86.3921,"RA_OF_ASC_NODE":64.5561,"ARG_OF_PERICENTER":90.2721,"MEAN_ANOMALY":269.8725,"EPHEMERIS_TYPE":0,"CLASSIFICATION_TYPE":"U","NORAD_CAT_ID":42955,"ELEMENT_SET_NO":999,"REV_AT_EPOCH":44130,"BSTAR":1.7774499e-5,"MEAN_MOTION_DOT":7.0e-7,"MEAN_MOTION_DDOT":0},{"OBJECT_NAME":"IRIDIUM 100","OBJECT_ID":"2017-061B","EPOCH":"2026-03-15T06:09:06.651936","MEAN_MOTION":14.34217783,"ECCENTRICITY":0.0002128,"INCLINATION":86.3918,"RA_OF_ASC_NODE":64.4502,"ARG_OF_PERICENTER":89.6737,"MEAN_ANOMALY":270.4703,"EPHEMERIS_TYPE":0,"CLASSIFICATION_TYPE":"U","NORAD_CAT_ID":42956,"ELEMENT_SET_NO":999,"REV_AT_EPOCH":44131,"BSTAR":9.351832e-6,"MEAN_MOTION_DOT":4.6e-7,"MEAN_MOTION_DDOT":0},{"OBJECT_NAME":"IRIDIUM 122","OBJECT_ID":"2017-061C","EPOCH":"2026-03-15T00:22:02.550720","MEAN_MOTION":14.34217507,"ECCENTRICITY":0.00020805,"INCLINATION":86.3917,"RA_OF_ASC_NODE":64.5511,"ARG_OF_PERICENTER":88.167,"MEAN_ANOMALY":271.9764,"EPHEMERIS_TYPE":0,"CLASSIFICATION_TYPE":"U","NORAD_CAT_ID":42957,"ELEMENT_SET_NO":999,"REV_AT_EPOCH":44128,"BSTAR":3.206979e-6,"MEAN_MOTION_DOT":2.9e-7,"MEAN_MOTION_DDOT":0},{"OBJECT_NAME":"IRIDIUM 129","OBJECT_ID":"2017-061D","EPOCH":"2026-03-15T05:59:58.576992","MEAN_MOTION":14.34218336,"ECCENTRICITY":0.00023999,"INCLINATION":86.392,"RA_OF_ASC_NODE":64.5191,"ARG_OF_PERICENTER":82.1771,"MEAN_ANOMALY":277.9697,"EPHEMERIS_TYPE":0,"CLASSIFICATION_TYPE":"U","NORAD_CAT_ID":42958,"ELEMENT_SET_NO":999,"REV_AT_EPOCH":44133,"BSTAR":2.7770675e-5,"MEAN_MOTION_DOT":9.8e-7,"MEAN_MOTION_DDOT":0},{"OBJECT_NAME":"IRIDIUM 119","OBJECT_ID":"2017-061E","EPOCH":"2026-03-15T05:14:18.068352","MEAN_MOTION":14.34220035,"ECCENTRICITY":0.00021475,"INCLINATION":86.392,"RA_OF_ASC_NODE":64.5276,"ARG_OF_PERICENTER":84.8787,"MEAN_ANOMALY":275.2654,"EPHEMERIS_TYPE":0,"CLASSIFICATION_TYPE":"U","NORAD_CAT_ID":42959,"ELEMENT_SET_NO":999,"REV_AT_EPOCH":44134,"BSTAR":5.2645508e-5,"MEAN_MOTION_DOT":1.67e-6,"MEAN_MOTION_DDOT":0},{"OBJECT_NAME":"IRIDIUM 107","OBJECT_ID":"2017-061F","EPOCH":"2026-03-15T05:41:42.578304","MEAN_MOTION":14.34217474,"ECCENTRICITY":0.00017488,"INCLINATION":86.392,"RA_OF_ASC_NODE":64.5407,"ARG_OF_PERICENTER":91.1288,"MEAN_ANOMALY":269.0108,"EPHEMERIS_TYPE":0,"CLASSIFICATION_TYPE":"U","NORAD_CAT_ID":42960,"ELEMENT_SET_NO":999,"REV_AT_EPOCH":44135,"BSTAR":-4.960309e-6,"MEAN_MOTION_DOT":6.0e-8,"MEAN_MOTION_DDOT":0},{"OBJECT_NAME":"IRIDIUM 132","OBJECT_ID":"2017-061G","EPOCH":"2026-03-15T00:49:26.603616","MEAN_MOTION":14.34218038,"ECCENTRICITY":0.00021343,"INCLINATION":86.3919,"RA_OF_ASC_NODE":64.6055,"ARG_OF_PERICENTER":90.2145,"MEAN_ANOMALY":269.9296,"EPHEMERIS_TYPE":0,"CLASSIFICATION_TYPE":"U","NORAD_CAT_ID":42961,"ELEMENT_SET_NO":999,"REV_AT_EPOCH":44132,"BSTAR":2.3123114e-5,"MEAN_MOTION_DOT":8.5e-7,"MEAN_MOTION_DDOT":0},{"OBJECT_NAME":"IRIDIUM 136","OBJECT_ID":"2017-061H","EPOCH":"2026-03-15T01:35:06.643968","MEAN_MOTION":14.34217468,"ECCENTRICITY":0.00020045,"INCLINATION":86.3922,"RA_OF_ASC_NODE":64.5987,"ARG_OF_PERICENTER":86.7677,"MEAN_ANOMALY":273.3748,"EPHEMERIS_TYPE":0,"CLASSIFICATION_TYPE":"U","NORAD_CAT_ID":42962,"ELEMENT_SET_NO":999,"REV_AT_EPOCH":44134,"BSTAR":-5.760121e-6,"MEAN_MOTION_DOT":4.0e-8,"MEAN_MOTION_DDOT":0},{"OBJECT_NAME":"IRIDIUM 139","OBJECT_ID":"2017-061J","EPOCH":"2026-03-15T05:05:10.668192","MEAN_MOTION":14.34217879,"ECCENTRICITY":0.00021467,"INCLINATION":86.3922,"RA_OF_ASC_NODE":64.5979,"ARG_OF_PERICENTER":90.9983,"MEAN_ANOMALY":269.1458,"EPHEMERIS_TYPE":0,"CLASSIFICATION_TYPE":"U","NORAD_CAT_ID":42963,"ELEMENT_SET_NO":999,"REV_AT_EPOCH":44137,"BSTAR":1.0323882e-5,"MEAN_MOTION_DOT":4.9e-7,"MEAN_MOTION_DDOT":0},{"OBJECT_NAME":"IRIDIUM 125","OBJECT_ID":"2017-061K","EPOCH":"2026-03-15T01:25:58.508544","MEAN_MOTION":14.34217575,"ECCENTRICITY":0.00016146,"INCLINATION":86.3926,"RA_OF_ASC_NODE":64.7214,"ARG_OF_PERICENTER":77.5065,"MEAN_ANOMALY":282.6312,"EPHEMERIS_TYPE":0,"CLASSIFICATION_TYPE":"U","NORAD_CAT_ID":42964,"ELEMENT_SET_NO":999,"REV_AT_EPOCH":44136,"BSTAR":-6.124222e-6,"MEAN_MOTION_DOT":3.0e-8,"MEAN_MOTION_DDOT":0},{"OBJECT_NAME":"IRIDIUM 135","OBJECT_ID":"2017-083A","EPOCH":"2026-03-15T05:50:06.932256","MEAN_MOTION":14.34216975,"ECCENTRICITY":0.00021966,"INCLINATION":86.4028,"RA_OF_ASC_NODE":1.2756,"ARG_OF_PERICENTER":85.185,"MEAN_ANOMALY":274.9596,"EPHEMERIS_TYPE":0,"CLASSIFICATION_TYPE":"U","NORAD_CAT_ID":43070,"ELEMENT_SET_NO":999,"REV_AT_EPOCH":43068,"BSTAR":6.5357034e-5,"MEAN_MOTION_DOT":2.03e-6,"MEAN_MOTION_DDOT":0},{"OBJECT_NAME":"IRIDIUM 138","OBJECT_ID":"2017-083B","EPOCH":"2026-03-15T06:26:39.034176","MEAN_MOTION":14.34218882,"ECCENTRICITY":0.00020844,"INCLINATION":86.4042,"RA_OF_ASC_NODE":0.9464,"ARG_OF_PERICENTER":73.4534,"MEAN_ANOMALY":286.6891,"EPHEMERIS_TYPE":0,"CLASSIFICATION_TYPE":"U","NORAD_CAT_ID":43071,"ELEMENT_SET_NO":999,"REV_AT_EPOCH":43067,"BSTAR":4.6261285e-5,"MEAN_MOTION_DOT":1.49e-6,"MEAN_MOTION_DDOT":0},{"OBJECT_NAME":"IRIDIUM 116","OBJECT_ID":"2017-083C","EPOCH":"2026-03-15T05:40:59.183040","MEAN_MOTION":14.34218401,"ECCENTRICITY":0.00022242,"INCLINATION":86.4025,"RA_OF_ASC_NODE":1.2653,"ARG_OF_PERICENTER":93.4097,"MEAN_ANOMALY":266.7354,"EPHEMERIS_TYPE":0,"CLASSIFICATION_TYPE":"U","NORAD_CAT_ID":43072,"ELEMENT_SET_NO":999,"REV_AT_EPOCH":43070,"BSTAR":4.5585197e-5,"MEAN_MOTION_DOT":1.47e-6,"MEAN_MOTION_DDOT":0},{"OBJECT_NAME":"IRIDIUM 130","OBJECT_ID":"2017-083D","EPOCH":"2026-03-15T06:35:47.103072","MEAN_MOTION":14.34218077,"ECCENTRICITY":0.00019748,"INCLINATION":86.4036,"RA_OF_ASC_NODE":1.5155,"ARG_OF_PERICENTER":91.7699,"MEAN_ANOMALY":268.3723,"EPHEMERIS_TYPE":0,"CLASSIFICATION_TYPE":"U","NORAD_CAT_ID":43073,"ELEMENT_SET_NO":999,"REV_AT_EPOCH":43065,"BSTAR":8.736894e-6,"MEAN_MOTION_DOT":4.4e-7,"MEAN_MOTION_DDOT":0}]
